{"type":"FeatureCollection","source":"Static country-boundary fallback from johan/world.geo.json; ICPAC Geoportal WFS is preferred when available.","features":[{"type":"Feature","id":"KEN","properties":{"name":"Kenya","iso3":"KEN"},"geometry":{"type":"Polygon","coordinates":[[[40.993,-0.85829],[41.58513,-1.68325],[40.88477,-2.08255],[40.63785,-2.49979],[40.26304,-2.57309],[40.12119,-3.27768],[39.80006,-3.68116],[39.60489,-4.34653],[39.20222,-4.67677],[37.7669,-3.67712],[37.69869,-3.09699],[34.07262,-1.05982],[33.903711,-0.95],[33.893569,0.109814],[34.18,0.515],[34.6721,1.17694],[35.03599,1.90584],[34.59607,3.05374],[34.47913,3.5556],[34.005,4.249885],[34.620196,4.847123],[35.298007,5.506],[35.817448,5.338232],[35.817448,4.776966],[36.159079,4.447864],[36.855093,4.447864],[38.120915,3.598605],[38.43697,3.58851],[38.67114,3.61607],[38.89251,3.50074],[39.559384,3.42206],[39.85494,3.83879],[40.76848,4.25702],[41.1718,3.91909],[41.855083,3.918912],[40.98105,2.78452],[40.993,-0.85829]]]}} ,{"type":"Feature","id":"UGA","properties":{"name":"Uganda","iso3":"UGA"},"geometry":{"type":"Polygon","coordinates":[[[31.86617,-1.02736],[30.76986,-1.01455],[30.419105,-1.134659],[29.821519,-1.443322],[29.579466,-1.341313],[29.587838,-0.587406],[29.8195,-0.2053],[29.875779,0.59738],[30.086154,1.062313],[30.468508,1.583805],[30.85267,1.849396],[31.174149,2.204465],[30.77332,2.33989],[30.83385,3.50917],[31.24556,3.7819],[31.88145,3.55827],[32.68642,3.79232],[33.39,3.79],[34.005,4.249885],[34.47913,3.5556],[34.59607,3.05374],[35.03599,1.90584],[34.6721,1.17694],[34.18,0.515],[33.893569,0.109814],[33.903711,-0.95],[31.86617,-1.02736]]]}} ,{"type":"Feature","id":"RWA","properties":{"name":"Rwanda","iso3":"RWA"},"geometry":{"type":"Polygon","coordinates":[[[30.419105,-1.134659],[30.816135,-1.698914],[30.758309,-2.28725],[30.469696,-2.413858],[29.938359,-2.348487],[29.632176,-2.917858],[29.024926,-2.839258],[29.117479,-2.292211],[29.254835,-2.21511],[29.291887,-1.620056],[29.579466,-1.341313],[29.821519,-1.443322],[30.419105,-1.134659]]]}} ,{"type":"Feature","id":"BDI","properties":{"name":"Burundi","iso3":"BDI"},"geometry":{"type":"Polygon","coordinates":[[[29.339998,-4.499983],[29.276384,-3.293907],[29.024926,-2.839258],[29.632176,-2.917858],[29.938359,-2.348487],[30.469696,-2.413858],[30.527677,-2.807632],[30.743013,-3.034285],[30.752263,-3.35933],[30.50556,-3.568567],[30.116333,-4.090138],[29.753512,-4.452389],[29.339998,-4.499983]]]}} ,{"type":"Feature","id":"ETH","properties":{"name":"Ethiopia","iso3":"ETH"},"geometry":{"type":"Polygon","coordinates":[[[37.90607,14.95943],[38.51295,14.50547],[39.0994,14.74064],[39.34061,14.53155],[40.02625,14.51959],[40.8966,14.11864],[41.1552,13.77333],[41.59856,13.45209],[42.00975,12.86582],[42.35156,12.54223],[42,12.1],[41.66176,11.6312],[41.73959,11.35511],[41.75557,11.05091],[42.31414,11.0342],[42.55493,11.10511],[42.776852,10.926879],[42.55876,10.57258],[42.92812,10.02194],[43.29699,9.54048],[43.67875,9.18358],[46.94834,7.99688],[47.78942,8.003],[44.9636,5.00162],[43.66087,4.95755],[42.76967,4.25259],[42.12861,4.23413],[41.855083,3.918912],[41.1718,3.91909],[40.76848,4.25702],[39.85494,3.83879],[39.559384,3.42206],[38.89251,3.50074],[38.67114,3.61607],[38.43697,3.58851],[38.120915,3.598605],[36.855093,4.447864],[36.159079,4.447864],[35.817448,4.776966],[35.817448,5.338232],[35.298007,5.506],[34.70702,6.59422],[34.25032,6.82607],[34.0751,7.22595],[33.56829,7.71334],[32.95418,7.78497],[33.2948,8.35458],[33.8255,8.37916],[33.97498,8.68456],[33.96162,9.58358],[34.25745,10.63009],[34.73115,10.91017],[34.83163,11.31896],[35.26049,12.08286],[35.86363,12.57828],[36.27022,13.56333],[36.42951,14.42211],[37.59377,14.2131],[37.90607,14.95943]]]}} ,{"type":"Feature","id":"ZMB","properties":{"name":"Zambia","iso3":"ZMB"},"geometry":{"type":"Polygon","coordinates":[[[32.759375,-9.230599],[33.231388,-9.676722],[33.485688,-10.525559],[33.31531,-10.79655],[33.114289,-11.607198],[33.306422,-12.435778],[32.991764,-12.783871],[32.688165,-13.712858],[33.214025,-13.97186],[30.179481,-14.796099],[30.274256,-15.507787],[29.516834,-15.644678],[28.947463,-16.043051],[28.825869,-16.389749],[28.467906,-16.4684],[27.598243,-17.290831],[27.044427,-17.938026],[26.706773,-17.961229],[26.381935,-17.846042],[25.264226,-17.73654],[25.084443,-17.661816],[25.07695,-17.578823],[24.682349,-17.353411],[24.033862,-17.295843],[23.215048,-17.523116],[22.562478,-16.898451],[21.887843,-16.08031],[21.933886,-12.898437],[24.016137,-12.911046],[23.930922,-12.565848],[24.079905,-12.191297],[23.904154,-11.722282],[24.017894,-11.237298],[23.912215,-10.926826],[24.257155,-10.951993],[24.314516,-11.262826],[24.78317,-11.238694],[25.418118,-11.330936],[25.75231,-11.784965],[26.553088,-11.92444],[27.16442,-11.608748],[27.388799,-12.132747],[28.155109,-12.272481],[28.523562,-12.698604],[28.934286,-13.248958],[29.699614,-13.257227],[29.616001,-12.178895],[29.341548,-12.360744],[28.642417,-11.971569],[28.372253,-11.793647],[28.49607,-10.789884],[28.673682,-9.605925],[28.449871,-9.164918],[28.734867,-8.526559],[29.002912,-8.407032],[30.346086,-8.238257],[30.740015,-8.340007],[31.157751,-8.594579],[31.556348,-8.762049],[32.191865,-8.930359],[32.759375,-9.230599]]]}}]}